363P/Lemmon,e,5.3899,146.6674,340.8654,3.576381,0.1457264,0.51898229,324.9969,03/18.0/2024,2000,g 17.5,4.0
# From MPEC 2023-XP6
364P/PANSTARRS,e,12.1346,46.1490,212.0926,2.883721,0.2012677,0.72184211,62.1722,03/18.0/2024,2000,g 17.0,2.0
# From MPC111775
365P/PANSTARRS,e,9.8494,86.6567,67.4303,3.156455,0.1757538,0.58140547,28.2266,03/18.0/2024,2000,g 17.0,4.0
# From MPC114610
366P/Spacewatch,e,8.8570,70.7237,153.0279,3.498343,0.1506297,0.34830245,311.9484,03/18.0/2024,2000,g 15.0,4.0
# From MPC112395
367P/Catalina,e,8.4597,58.6610,172.7408,3.509930,0.1498844,0.27983284,315.0737,03/18.0/2024,2000,g 17.5,2.0
# From MPC114610
368P/NEAT,e,15.4809,257.8712,118.9460,5.532267,0.0757442,0.62640722,152.2428,03/18.0/2024,2000,g 14.0,4.0
# From MPC114610
369P/Hill,e,10.3228,47.2981,13.1848,4.380006,0.1075207,0.55587276,212.6428,03/18.0/2024,2000,g 15.0,4.0
# From MPEC 2021-F20
370P/NEAT,e,19.4237,55.0815,356.7362,6.436985,0.0603504,0.61553286,127.0848,03/18.0/2024,2000,g 13.0,4.0
# From MPC114610
371P/LINEAR-Skiff,e,17.3845,67.2841,308.5589,4.180496,0.1153088,0.47696472,229.3080,03/18.0/2024,2000,g 16.0,4.0
# From MPEC 2020-K19
372P/McNaught,e,9.5077,27.5506,326.0165,4.510498,0.1028886,0.15186911,202.8500,03/18.0/2024,2000,g 13.5,4.0
# From MPEC 2021-F20
373P/Rinner,e,13.7703,231.9461,221.0496,3.798956,0.1331091,0.39353312,240.0743,03/18.0/2024,2000,g 14.5,4.0
# From MPC114610
374P/Larson,e,10.7659,7.9073,51.4962,4.971070,0.0889261,0.46374775,168.1221,03/18.0/2024,2000,g 14.0,4.0
# From MPEC 2021-F20
375P/Hill,e,17.3653,359.9007,119.3778,5.547167,0.0754392,0.65967678,144.3188,03/18.0/2024,2000,g 16.0,4.0
# From MPEC 2022-K19
376P/LONEOS,e,1.1663,312.8989,285.4073,5.757821,0.0713373,0.51416241,117.3430,03/18.0/2024,2000,g 12.5,4.0
# From MPEC 2022-N37
377P/Scotti,e,9.0244,226.0415,354.9010,6.698342,0.0568530,0.25108415,76.5894,03/18.0/2024,2000,g  9.5,4.0
# From MPEC 2024-D33
378P/McNaught,e,19.1275,93.8520,193.4286,6.297198,0.0623710,0.46557439,78.1441,03/18.0/2024,2000,g 12.0,4.0
# From MPC115889
379P/Spacewatch,e,12.4484,30.5588,184.1692,3.492286,0.1510217,0.34928606,253.3354,03/18.0/2024,2000,g 15.0,4.0
# From MPEC 2023-C45
380P/PANSTARRS,e,8.0135,128.3629,87.8496,4.421006,0.1060285,0.33861005,189.8343,03/18.0/2024,2000,g 12.5,4.0
# From MPEC 2021-J28
381P/LINEAR-Spacewatch,e,28.3639,173.2874,173.8438,7.142663,0.0516314,0.68125954,84.3859,03/18.0/2024,2000,g 17.5,2.0
# From MPEC 2024-EF7
382P/Larson,e,8.2914,172.3718,162.6097,5.972833,0.0675202,0.27274689,56.9789,03/18.0/2024,2000,g  8.0,4.0
# From MPEC 2022-OB6
383P/Christensen,e,12.3211,207.8506,133.7588,3.547900,0.1474847,0.59888026,236.6542,03/18.0/2024,2000,g 18.0,4.0
# From MPEC 2022-OB6
384P/Kowalski,e,7.2831,354.2019,37.7028,2.898546,0.1997256,0.61630149,323.0231,03/18.0/2024,2000,g 19.5,4.0
# From MPEC 2021-F20
385P/Hill,e,16.8290,357.0704,44.3899,4.288729,0.1109714,0.40213586,182.4694,03/18.0/2024,2000,g 13.0,4.0
# From MPEC 2021-L04
386P/PANSTARRS,e,15.2391,134.9191,353.0808,4.050703,0.1208950,0.41696621,157.9495,03/18.0/2024,2000,g 14.5,4.0
# From MPEC 2021-J28
387P/Boattini,e,8.9346,259.2468,162.8196,4.797065,0.0938082,0.73708168,155.0657,03/18.0/2024,2000,g 15.0,4.0
# From MPEC 2021-S45
388P/Gibbs,e,23.8905,37.0318,42.3165,5.240608,0.0821545,0.61921989,139.4609,03/18.0/2024,2000,g 13.0,4.0
# From MPEC 2022-OB6
389P/Siding Spring,e,160.0865,218.8830,249.3878,5.632942,0.0737227,0.70499365,113.4928,03/18.0/2024,2000,g 16.0,4.0
# From MPEC 2024-EF7
390P/Gibbs,e,18.5411,152.2447,232.4726,5.814409,0.0702985,0.70725519,102.3631,03/18.0/2024,2000,g 12.0,4.0
# From MPEC 2021-F20
391P/Kowalski,e,21.2620,124.7902,187.2127,4.687944,0.0971025,0.11888848,212.7111,03/18.0/2024,2000,g  8.0,4.0
# From MPEC 2021-J28
392P/LINEAR,e,4.9318,24.8523,71.8914,6.140704,0.0647704,0.68369866,93.6638,03/18.0/2024,2000,g 14.5,4.0
# From MPEC 2023-T65
393P/Spacewatch-Hill,e,16.7874,36.3919,329.1454,4.796688,0.0938192,0.11994599,150.0382,03/18.0/2024,2000,g 11.0,4.0
# From MPEC 2020-KB7
394P/PANSTARRS,e,8.5296,98.1253,54.4041,4.328625,0.1094408,0.36774562,171.8772,03/18.0/2024,2000,g 16.0,2.4
# From MPEC 2024-C04
395P/Catalina-NEAT,e,3.5817,221.0346,99.4921,7.169992,0.0513365,0.41551288,38.9644,03/18.0/2024,2000,g 10.0,4.0
# From MPEC 2020-KB7
396P/,e,5.4392,136.6272,8.3196,6.800976,0.0555709,0.41632176,92.4852,03/18.0/2024,2000,g 12.0,4.0
# From MPEC 2022-OB6
397P/Lemmon,e,10.9260,8.2262,14.5530,3.831178,0.1314334,0.40506799,179.6465,03/18.0/2024,2000,g 12.0,4.0
# From MPEC 2021-L04
398P/Boattini,e,11.0216,320.1528,127.4968,3.125638,0.1783594,0.58353732,209.8328,03/18.0/2024,2000,g 15.5,4.0
# From MPEC 2023-XP6
399P/PANSTARRS,e,13.3215,207.1302,214.3914,3.792958,0.1334249,0.44743633,137.4002,03/18.0/2024,2000,g 14.0,4.0
# From MPEC 2022-ED3
400P/PANSTARRS,e,10.9297,176.4053,238.8538,3.561926,0.1466145,0.40971389,165.8346,03/18.0/2024,2000,g 15.5,2.8
# From MPEC 2022-K19
401P/McNaught,e,12.8017,359.9051,309.4251,5.777892,0.0709659,0.57881382,111.0267,03/18.0/2024,2000,g 12.5,4.0
# From MPEC 2024-DC6
402P/LINEAR,e,30.8336,123.0723,326.8491,7.033278,0.0528406,0.43992406,43.5217,03/18.0/2024,2000,g  8.0,4.0
# From MPEC 2021-J28
403P/Catalina,e,12.3277,277.5810,163.8904,5.430291,0.0778878,0.50424978,99.5245,03/18.0/2024,2000,g 12.0,4.0
# From MPEC 2024-EF7
404P/Bressi,e,9.8006,260.0358,169.3742,4.729497,0.0958256,0.12619000,12.9236,03/18.0/2024,2000,g 10.0,4.0
# From MPEC 2021-L04
405P/Lemmon,e,9.3745,112.1899,3.2949,3.604902,0.1440004,0.68979885,169.8158,03/18.0/2024,2000,g 17.5,4.0
# From MPEC 2021-F20
406P/Gibbs,e,1.2112,352.4165,11.5387,3.578228,0.1456137,0.54159652,186.2529,03/18.0/2024,2000,g 17.0,4.0
# From MPEC 2022-YN2
407P/PANSTARRS-Fuls,e,4.8758,80.2520,93.4927,3.484530,0.1515262,0.37715636,229.7169,03/18.0/2024,2000,g 14.0,4.0
# From MPEC 2024-EF7
408P/Novichonok-Gerke,e,19.3564,189.4435,226.5706,4.743198,0.0954107,0.26868638,50.5058,03/18.0/2024,2000,g 11.0,4.0
# From MPEC 2022-ED3
409P/LONEOS-Hill,e,17.1327,143.6495,15.0590,6.034415,0.0664892,0.70981851,76.1253,03/18.0/2024,2000,g 14.0,4.0
# From MPEC 2022-M21
410P/NEAT-LINEAR,e,9.3892,139.9728,313.1495,6.647430,0.0575074,0.51160292,57.3823,03/18.0/2024,2000,g 12.5,4.0
# From MPEC 2021-J28
411P/Christensen,e,12.3885,77.6526,46.5578,5.811418,0.0703527,0.58133773,80.7835,03/18.0/2024,2000,g 13.5,4.0
# From MPEC 2021-F20
412P/WISE,e,8.9310,0.8456,155.9016,3.110506,0.1796625,0.47893773,215.5670,03/18.0/2024,2000,g 17.0,4.0
# From MPEC 2022-OB6
413P/Larson,e,15.9808,39.2269,186.5389,3.731359,0.1367425,0.41989777,133.0520,03/18.0/2024,2000,g 14.0,4.0
# From MPEC 2021-BE3
414P/STEREO,e,23.4062,257.8170,210.6862,2.792887,0.2111660,0.81207960,242.3009,03/18.0/2024,2000,g 19.0,4.0
# From MPEC 2022-J42
415P/Tenagra,e,31.7965,160.2715,345.8906,4.109957,0.1182900,0.19503390,133.4917,03/18.0/2024,2000,g 12.0,4.0
# From MPEC 2021-L04
416P/Scotti,e,3.3618,355.7692,134.4068,4.007947,0.1228347,0.45491727,138.3523,03/18.0/2024,2000,g 15.5,4.0
# From MPEC 2021-W31
417P/NEOWISE,e,8.2493,125.0134,114.7690,3.311830,0.1635317,0.56933135,172.2986,03/18.0/2024,2000,g 16.5,4.0
# From MPEC 2022-TA0
418P/LINEAR,e,5.7802,277.6520,307.3680,5.094548,0.0857128,0.66381665,75.6962,03/18.0/2024,2000,g 13.0,4.0
# From MPEC 2023-UR6
419P/PANSTARRS,e,2.8015,40.4084,187.8578,3.527004,0.1487973,0.27619877,129.8049,03/18.0/2024,2000,g 12.5,4.0
# From MPEC 2024-C04
420P/Hill,e,14.4852,173.8066,156.5653,5.505174,0.0763040,0.49551203,50.9611,03/18.0/2024,2000,g 11.5,4.0
# From MPEC 2021-W31
421P/McNaught,e,10.0758,55.3316,259.8975,5.076361,0.0861738,0.67473366,98.9261,03/18.0/2024,2000,g 14.0,4.0
# From MPEC 2022-X67
422P/Christensen,e,39.5840,36.0258,304.8445,6.283106,0.0625810,0.50641921,49.8149,03/18.0/2024,2000,g 11.0,4.0
# From MPEC 2023-FK0
423P/Lemmon,e,8.3458,33.2977,80.5163,6.175950,0.0642168,0.12239564,58.3445,03/18.0/2024,2000,g  8.0,4.0
# From MPEC 2022-CN4
424P/LaSagra,e,8.6830,51.1924,312.5477,4.419200,0.1060934,0.69097599,92.1405,03/18.0/2024,2000,g 17.0,4.0
# From MPEC 2024-C04
425P/Kowalski,e,16.4206,210.0750,200.9013,6.345465,0.0616608,0.54403237,56.0488,03/18.0/2024,2000,g 12.0,4.0
# From MPEC 2024-A43
426P/PANSTARRS,e,17.7787,280.3960,118.6240,3.188465,0.1731137,0.16153559,32.6471,03/18.0/2024,2000,g 13.5,4.0
# From MPEC 2023-J29
428P/Gibbs,e,8.5064,299.3300,36.9006,3.487067,0.1513609,0.51875778,157.2324,03/18.0/2024,2000,g 15.0,4.0
# From MPEC 2024-EF7
429P/LINEAR-Hill,e,7.5169,322.0540,75.6561,3.554323,0.1470851,0.49131558,118.5032,03/18.0/2024,2000,g 15.5,4.0
# From MPEC 2022-L66
430P/Scotti,e,4.4753,54.6699,94.4247,3.104290,0.1802024,0.49980357,150.7912,03/18.0/2024,2000,g 16.5,4.0
# From MPEC 2024-EF7
431P/Scotti,e,22.3909,202.8430,199.9560,3.475678,0.1521055,0.47772986,116.1231,03/18.0/2024,2000,g 14.0,4.0
# From MPEC 2021-U31
432P/PANSTARRS,e,10.0683,239.1303,105.3227,3.036885,0.1862351,0.24135742,173.3729,03/18.0/2024,2000,g 17.0,4.0
# From MPEC 2024-D33
434P/Tenagra,e,6.3361,288.9387,128.2996,4.133400,0.1172851,0.27470646,102.4080,03/18.0/2024,2000,g 13.0,4.0
# From MPEC 2021-W31
435P/PANSTARRS,e,18.8750,98.5361,244.2430,3.020281,0.1877729,0.31805292,181.1726,03/18.0/2024,2000,g 17.0,4.0
# From MPEC 2022-X67
436P/Garradd,e,20.2015,87.1689,282.7042,5.934724,0.0681716,0.66961762,56.6211,03/18.0/2024,2000,g 14.5,4.0
# From MPEC 2023-B57
437P/Lemmon-PANSTARRS,e,3.6889,245.8446,206.8878,4.565264,0.1010428,0.25500669,58.2669,03/18.0/2024,2000,g 13.0,4.0
# From MPEC 2021-W47
438P/Christensen,e,8.2812,260.1181,59.0382,3.850573,0.1304416,0.41464298,188.3401,03/18.0/2024,2000,g 14.5,4.0
# From MPEC 2022-C56
439P/LINEAR,e,7.1136,56.4342,342.0762,3.490730,0.1511227,0.46951570,141.2399,03/18.0/2024,2000,g 13.5,4.0
# From MPEC 2022-WQ9
440P/Kobayashi,e,12.3419,328.8457,183.2864,8.577022,0.0392373,0.76051625,28.2131,03/18.0/2024,2000,g 15.5,4.0
# From MPEC 2022-X67
441P/PANSTARRS,e,2.5744,143.6036,178.8520,4.133847,0.1172661,0.19507032,296.6452,03/18.0/2024,2000,g 13.5,4.0
# From MPEC 2024-BE0
